[{"OBJECT_NAME":"KUIPER-00123","OBJECT_ID":"2025-228F","EPOCH":"2026-03-09T05:16:41.356704","MEAN_MOTION":14.79954051,"ECCENTRICITY":4.843e-5,"INCLINATION":51.9011,"RA_OF_ASC_NODE":5.169,"ARG_OF_PERICENTER":341.7686,"MEAN_ANOMALY":18.3259,"EPHEMERIS_TYPE":0,"CLASSIFICATION_TYPE":"U","NORAD_CAT_ID":65952,"ELEMENT_SET_NO":999,"REV_AT_EPOCH":2312,"BSTAR":-0.0012580982,"MEAN_MOTION_DOT":-9.803e-5,"MEAN_MOTION_DDOT":0},{"OBJECT_NAME":"UNKNOWN","OBJECT_ID":"","EPOCH":"2026-03-08T13:56:10.992192","MEAN_MOTION":14.80146945,"ECCENTRICITY":0.0002389,"INCLINATION":99.8399,"RA_OF_ASC_NODE":106.8631,"ARG_OF_PERICENTER":110.0444,"MEAN_ANOMALY":42.7966,"EPHEMERIS_TYPE":0,"CLASSIFICATION_TYPE":"U","NORAD_CAT_ID":85023,"ELEMENT_SET_NO":999,"REV_AT_EPOCH":64150,"BSTAR":0.0060052,"MEAN_MOTION_DOT":0.00045826,"MEAN_MOTION_DDOT":0}]
